NORAD_CAT_ID,OBJECT_NAME,OBJECT_TYPE,EPOCH,MEAN_MOTION,ECCENTRICITY,INCLINATION,RA_OF_ASC_NODE,ARG_OF_PERICENTER,MEAN_ANOMALY,BSTAR,MEAN_MOTION_DOT,MEAN_MOTION_DDOT,TLE_LINE0,TLE_LINE1,TLE_LINE2,SEMIMAJOR_AXIS,PERIOD,APOGEE,PERIGEE,DECAYED
52482.0,STARLINK-3813,PAYLOAD,2023-05-17 20:28:03,15.08840627,0.0001117,53.2169,338.7726,87.496,272.616,7.6454e-05,9.29e-06,0.0,0 STARLINK-3813,1 52482U 22049AH  23137.85281774  .00000929  00000-0  76454-4 0  9996,2 52482  53.2169 338.7726 0001117  87.4960 272.6160 15.08840627 57376,6917.878,95.438,540.516,538.971,0.0
52482.0,STARLINK-3813,PAYLOAD,2023-05-18 13:57:18,15.08836493,0.0001078,53.217,335.5015,92.085,268.0266,1.5604e-05,-3.9e-07,0.0,0 STARLINK-3813,1 52482U 22049AH  23138.58146380 -.00000039  00000-0  15604-4 0  9993,2 52482  53.2170 335.5015 0001078  92.0850 268.0266 15.08836493 57484,6917.891,95.438,540.502,539.01,0.0
52482.0,STARLINK-3813,PAYLOAD,2023-05-18 21:54:13,15.08842761,0.0001068,53.217,334.0149,92.461,267.6504,6.533e-05,7.52e-06,0.0,0 STARLINK-3813,1 52482U 22049AH  23138.91265826  .00000752  00000-0  65330-4 0  9999,2 52482  53.2170 334.0149 0001068  92.4610 267.6504 15.08842761 57534,6917.872,95.437,540.476,538.998,0.0
52482.0,STARLINK-3813,PAYLOAD,2023-05-19 15:23:28,15.08834478,0.0001066,53.2172,330.7441,94.8436,265.2677,0.00010057,1.313e-05,0.0,0 STARLINK-3813,1 52482U 22049AH  23139.64130458  .00001313  00000-0  10057-3 0  9991,2 52482  53.2172 330.7441 0001066  94.8436 265.2677 15.08834478 57805,6917.897,95.438,540.5,539.025,0.0
52482.0,STARLINK-3813,PAYLOAD,2023-05-19 21:45:00,15.08843572,0.0001061,53.217,329.5547,94.4279,265.6835,0.00011152,1.488e-05,0.0,0 STARLINK-3813,1 52482U 22049AH  23139.90625892  .00001488  00000-0  11152-3 0  9991,2 52482  53.2170 329.5547 0001061  94.4279 265.6835 15.08843572 57683,6917.869,95.437,540.468,539.0,0.0
52482.0,STARLINK-3813,PAYLOAD,2023-05-20 20:00:24,15.08853078,0.0001126,53.2159,325.3909,86.5895,273.5226,0.00023181,3.405e-05,0.0,0 STARLINK-3813,1 52482U 22049AH  23140.83361234  .00003405  00000-0  23181-3 0  9998,2 52482  53.2159 325.3909 0001126  86.5895 273.5226 15.08853078 57824,6917.84,95.437,540.484,538.926,0.0
52482.0,STARLINK-3813,PAYLOAD,2023-05-21 05:32:43,15.08841689,0.0001095,53.2179,323.6078,86.4927,273.6191,6.4911e-05,7.45e-06,0.0,0 STARLINK-3813,1 52482U 22049AH  23141.23105782  .00000745  00000-0  64911-4 0  9998,2 52482  53.2179 323.6078 0001095  86.4927 273.6191 15.08841689 58046,6917.875,95.437,540.498,538.983,0.0
52482.0,STARLINK-3813,PAYLOAD,2023-05-21 18:15:49,15.08826351,9.4e-05,53.2158,321.2283,92.753,267.357,-8.5228e-05,-1.643e-05,0.0,0 STARLINK-3813,1 52482U 22049AH  23141.76098881 -.00001643  00000-0 -85228-4 0  9991,2 52482  53.2158 321.2283 0000940  92.7530 267.3570 15.08826351 58122,6917.922,95.438,540.437,539.137,0.0
52482.0,STARLINK-3813,PAYLOAD,2023-05-22 05:23:31,15.08839783,0.0001055,53.2155,319.1466,94.7303,265.3809,0.00018447,2.649e-05,0.0,0 STARLINK-3813,1 52482U 22049AH  23142.22466490  .00002649  00000-0  18447-3 0  9991,2 52482  53.2155 319.1466 0001055  94.7303 265.3809 15.08839783 58199,6917.881,95.438,540.476,539.016,0.0
52482.0,STARLINK-3813,PAYLOAD,2023-05-22 18:06:35,15.08856272,9.62e-05,53.2157,316.7674,93.6543,266.456,0.00053475,8.237e-05,0.0,0 STARLINK-3813,1 52482U 22049AH  23142.75457956  .00008237  00000-0  53475-3 0  9995,2 52482  53.2157 316.7674 0000962  93.6543 266.4560 15.08856272 58272,6917.831,95.437,540.361,539.03,0.0
52482.0,STARLINK-3813,PAYLOAD,2023-05-22 21:17:22,15.08859707,9.88e-05,53.2161,316.1709,103.6727,256.4375,0.0010131,0.00015881,0.0,0 STARLINK-3813,1 52482U 22049AH  23142.88706129  .00015881  00000-0  10131-2 0  9992,2 52482  53.2161 316.1709 0000988 103.6727 256.4375 15.08859707 58138,6917.82,95.436,540.369,539.002,0.0
52482.0,STARLINK-3813,PAYLOAD,2023-05-23 02:03:31,15.08835582,9.25e-05,53.216,315.2812,68.5479,291.5612,-0.00020087,-3.483e-05,0.0,0 STARLINK-3813,1 52482U 22049AH  23143.08578453 -.00003483  00000-0 -20087-3 0  9991,2 52482  53.2160 315.2812 0000925  68.5479 291.5612 15.08835582 58326,6917.894,95.438,540.399,539.119,0.0
52482.0,STARLINK-3813,PAYLOAD,2023-05-23 21:08:09,15.0883791,9.13e-05,53.2165,311.7128,66.9872,293.1217,0.0012132,0.00019072,0.0,0 STARLINK-3813,1 52482U 22049AH  23143.88066764  .00019072  00000-0  12132-2 0  9996,2 52482  53.2165 311.7128 0000913  66.9872 293.1217 15.08837910 58289,6917.887,95.438,540.383,539.12,0.0
52482.0,STARLINK-3813,PAYLOAD,2023-05-24 11:26:37,15.0884477,8.45e-05,53.2164,309.0354,83.0435,277.0653,0.00091478,0.00014303,0.0,0 STARLINK-3813,1 52482U 22049AH  23144.47682848  .00014303  00000-0  91478-3 0  9992,2 52482  53.2164 309.0354 0000845  83.0435 277.0653 15.08844770 58533,6917.866,95.437,540.315,539.146,0.0
52482.0,STARLINK-3813,PAYLOAD,2023-05-24 16:12:47,15.08850076,8.44e-05,53.2168,308.144,77.1404,282.9682,0.0011722,0.00018422,0.0,0 STARLINK-3813,1 52482U 22049AH  23144.67554771  .00018422  00000-0  11722-2 0  9996,2 52482  53.2168 308.1440 0000844  77.1404 282.9682 15.08850076 58401,6917.85,95.437,540.298,539.131,0.0
52482.0,STARLINK-3813,PAYLOAD,2023-05-25 14:28:11,15.08849427,9.68e-05,53.2168,303.981,92.5432,267.5671,0.00053076,8.171e-05,0.0,0 STARLINK-3813,1 52482U 22049AH  23145.60290656  .00008171  00000-0  53076-3 0  9998,2 52482  53.2168 303.9810 0000968  92.5432 267.5671 15.08849427 58544,6917.852,95.437,540.386,539.047,0.0
52482.0,STARLINK-3813,PAYLOAD,2023-05-25 17:38:57,15.08847687,9.43e-05,53.2165,303.3866,79.6327,280.4771,0.00041559,6.334e-05,0.0,0 STARLINK-3813,1 52482U 22049AH  23145.73538663  .00006334  00000-0  41559-3 0  9997,2 52482  53.2165 303.3866 0000943  79.6327 280.4771 15.08847687 58729,6917.857,95.437,540.374,539.07,0.0
52482.0,STARLINK-3813,PAYLOAD,2023-05-25 20:49:43,15.08850669,9.49e-05,53.2163,302.7916,72.0271,288.0825,0.00041427,6.313e-05,0.0,0 STARLINK-3813,1 52482U 22049AH  23145.86786546  .00006313  00000-0  41427-3 0  9997,2 52482  53.2163 302.7916 0000949  72.0271 288.0825 15.08850669 58589,6917.848,95.437,540.369,539.056,0.0
52482.0,STARLINK-3813,PAYLOAD,2023-05-26 12:43:34,15.0884418,7.12e-05,53.2165,299.8179,113.6859,246.4208,0.00021968,3.211e-05,0.0,0 STARLINK-3813,1 52482U 22049AH  23146.53026524  .00003211  00000-0  21968-3 0  9997,2 52482  53.2165 299.8179 0000712 113.6859 246.4208 15.08844180 58685,6917.868,95.437,540.225,539.24,0.0
52482.0,STARLINK-3813,PAYLOAD,2023-05-26 17:29:44,15.08845213,9.54e-05,53.2162,298.9259,82.7985,277.3115,0.00018577,2.67e-05,0.0,0 STARLINK-3813,1 52482U 22049AH  23146.72898626  .00002670  00000-0  18577-3 0  9998,2 52482  53.2162 298.9259 0000954  82.7985 277.3115 15.08845213 58874,6917.864,95.437,540.389,539.069,0.0
52482.0,STARLINK-3813,PAYLOAD,2023-05-26 19:05:07,15.08846173,9.6e-05,53.2161,298.6285,83.6262,276.4839,0.00020434,2.966e-05,0.0,0 STARLINK-3813,1 52482U 22049AH  23146.79522571  .00002966  00000-0  20434-3 0  9991,2 52482  53.2161 298.6285 0000960  83.6262 276.4839 15.08846173 58727,6917.862,95.437,540.391,539.062,0.0
52482.0,STARLINK-3813,PAYLOAD,2023-05-27 09:23:36,15.08835206,0.0001032,53.216,295.9504,87.7032,272.4079,-2.4356e-05,-6.75e-06,0.0,0 STARLINK-3813,1 52482U 22049AH  23147.39138990 -.00000675  00000-0 -24356-4 0  9991,2 52482  53.2160 295.9504 0001032  87.7032 272.4079 15.08835206 58975,6917.895,95.438,540.474,539.046,0.0
52482.0,STARLINK-3813,PAYLOAD,2023-05-27 17:20:31,15.08841348,8.88e-05,53.2157,294.4647,91.038,269.0714,8.7388e-05,1.103e-05,0.0,0 STARLINK-3813,1 52482U 22049AH  23147.72258778  .00001103  00000-0  87388-4 0  9994,2 52482  53.2157 294.4647 0000888  91.0380 269.0714 15.08841348 58865,6917.876,95.437,540.356,539.127,0.0
52482.0,STARLINK-3813,PAYLOAD,2023-05-28 02:52:50,15.08840556,8.34e-05,53.2154,292.6814,94.5483,265.5604,0.00010535,1.389e-05,0.0,0 STARLINK-3813,1 52482U 22049AH  23148.12002871  .00001389  00000-0  10535-3 0  9995,2 52482  53.2154 292.6814 0000834  94.5483 265.5604 15.08840556 58927,6917.879,95.438,540.321,539.167,0.0
52482.0,STARLINK-3813,PAYLOAD,2023-05-28 17:11:18,15.08848312,8.68e-05,53.2157,290.005,89.7792,270.3299,0.00017689,2.529e-05,0.0,0 STARLINK-3813,1 52482U 22049AH  23148.71618634  .00002529  00000-0  17689-3 0  9994,2 52482  53.2157 290.0050 0000868  89.7792 270.3299 15.08848312 59170,6917.855,95.437,540.32,539.12,0.0
52482.0,STARLINK-3813,PAYLOAD,2023-05-29 02:43:37,15.08843307,8.62e-05,53.2164,288.2185,88.6001,271.5089,9.7989e-05,1.272e-05,0.0,0 STARLINK-3813,1 52482U 22049AH  23149.11362851  .00001272  00000-0  97989-4 0  9992,2 52482  53.2164 288.2185 0000862  88.6001 271.5089 15.08843307 59237,6917.87,95.437,540.332,539.139,0.0
52482.0,STARLINK-3813,PAYLOAD,2023-05-29 13:51:19,15.08840983,8.84e-05,53.2156,286.1394,78.3258,281.7834,0.00013478,1.858e-05,0.0,0 STARLINK-3813,1 52482U 22049AH  23149.57731062  .00001858  00000-0  13478-3 0  9996,2 52482  53.2156 286.1394 0000884  78.3258 281.7834 15.08840983 59149,6917.877,95.437,540.354,539.131,0.0
52482.0,STARLINK-3813,PAYLOAD,2023-05-29 15:26:42,15.08842913,8.58e-05,53.2157,285.8414,83.8317,276.2773,0.00012109,1.64e-05,0.0,0 STARLINK-3813,1 52482U 22049AH  23149.64354934  .00001640  00000-0  12109-3 0  9992,2 52482  53.2157 285.8414 0000858  83.8317 276.2773 15.08842913 59154,6917.871,95.437,540.33,539.143,0.0
52482.0,STARLINK-3813,PAYLOAD,2023-05-30 08:55:57,15.08839229,7.88e-05,53.2156,282.5707,78.0259,282.0821,7.7382e-05,9.44e-06,0.0,0 STARLINK-3813,1 52482U 22049AH  23150.37219078  .00000944  00000-0  77382-4 0  9994,2 52482  53.2156 282.5707 0000788  78.0259 282.0821 15.08839229 59420,6917.883,95.438,540.293,539.203,0.0
52482.0,STARLINK-3813,PAYLOAD,2023-05-30 12:06:43,15.0884003,8.89e-05,53.2155,281.9762,77.7254,282.3838,7.2564e-05,8.67e-06,0.0,0 STARLINK-3813,1 52482U 22049AH  23150.50467077  .00000867  00000-0  72564-4 0  9994,2 52482  53.2155 281.9762 0000889  77.7254 282.3838 15.08840030 59283,6917.88,95.438,540.36,539.13,0.0
